{
  "type": "FeatureCollection",
  "features": [
    {
      "type": "Feature",
      "properties": {
        "norad_id": 30996,
        "name": "FENGYUN 1C DEB",
        "group": "fengyun-1c-debris",
        "lat": -48.845129247328806,
        "lon": 71.09111581474798,
        "alt_km": 751.0277535865835,
        "timestamp": "2025-12-22T04:03:39.449128+00:00",
        "meta_object_name": "FENGYUN 1C DEB",
        "meta_object_id": "1999-025BCN",
        "meta_epoch": "2025-12-21T17:12:52.158240",
        "meta_mean_motion": 14.35453176,
        "meta_eccentricity": 0.0049599,
        "meta_inclination": 98.9438,
        "meta_ra_of_asc_node": 261.0028,
        "meta_arg_of_pericenter": 265.2504,
        "meta_mean_anomaly": 150.5306,
        "meta_ephemeris_type": 0,
        "meta_classification_type": "U",
        "meta_norad_cat_id": 30996,
        "meta_element_set_no": 999,
        "meta_rev_at_epoch": 97692,
        "meta_bstar": 0.00068073,
        "meta_mean_motion_dot": 1.936e-05,
        "meta_mean_motion_ddot": 0,
        "tle_line1": "1 30996U 99025BCN 25355.71727035  .00001936  00000+0  68073-3 0  9999",
        "tle_line2": "2 30996  98.9438 261.0028 0049599 265.2504 150.5306 14.35453176976921"
      },
      "geometry": {
        "type": "Point",
        "coordinates": [
          71.09111581474798,
          -48.845129247328806
        ]
      }
    },
    {
      "type": "Feature",
      "properties": {
        "norad_id": 30998,
        "name": "FENGYUN 1C DEB",
        "group": "fengyun-1c-debris",
        "lat": -50.27248883672463,
        "lon": 90.84778839751668,
        "alt_km": 745.9230268890306,
        "timestamp": "2025-12-22T04:03:39.449140+00:00",
        "meta_object_name": "FENGYUN 1C DEB",
        "meta_object_id": "1999-025BCQ",
        "meta_epoch": "2025-12-20T04:30:51.287904",
        "meta_mean_motion": 14.48018503,
        "meta_eccentricity": 0.00128512,
        "meta_inclination": 98.8292,
        "meta_ra_of_asc_node": 77.9998,
        "meta_arg_of_pericenter": 174.9572,
        "meta_mean_anomaly": 252.5169,
        "meta_ephemeris_type": 0,
        "meta_classification_type": "U",
        "meta_norad_cat_id": 30998,
        "meta_element_set_no": 999,
        "meta_rev_at_epoch": 97298,
        "meta_bstar": 0.0014852298,
        "meta_mean_motion_dot": 5.479e-05,
        "meta_mean_motion_ddot": 0,
        "tle_line1": "1 30998U 99025BCQ 25354.18809361  .00005479  00000+0  14852-2 0  9995",
        "tle_line2": "2 30998  98.8292  77.9998 0012851 174.9572 252.5169 14.48018503972989"
      },
      "geometry": {
        "type": "Point",
        "coordinates": [
          90.84778839751668,
          -50.27248883672463
        ]
      }
    },
    {
      "type": "Feature",
      "properties": {
        "norad_id": 30999,
        "name": "FENGYUN 1C DEB",
        "group": "fengyun-1c-debris",
        "lat": 58.551999151850076,
        "lon": 155.6050374541159,
        "alt_km": 719.6687225840369,
        "timestamp": "2025-12-22T04:03:39.449151+00:00",
        "meta_object_name": "FENGYUN 1C DEB",
        "meta_object_id": "1999-025BCR",
        "meta_epoch": "2025-12-21T17:54:35.548992",
        "meta_mean_motion": 14.58463021,
        "meta_eccentricity": 0.0112703,
        "meta_inclination": 99.0909,
        "meta_ra_of_asc_node": 170.3208,
        "meta_arg_of_pericenter": 310.5415,
        "meta_mean_anomaly": 48.6008,
        "meta_ephemeris_type": 0,
        "meta_classification_type": "U",
        "meta_norad_cat_id": 30999,
        "meta_element_set_no": 999,
        "meta_rev_at_epoch": 98962,
        "meta_bstar": 0.00046079,
        "meta_mean_motion_dot": 2.272e-05,
        "meta_mean_motion_ddot": 0,
        "tle_line1": "1 30999U 99025BCR 25355.74624478  .00002272  00000+0  46079-3 0  9998",
        "tle_line2": "2 30999  99.0909 170.3208 0112703 310.5415  48.6008 14.58463021989626"
      },
      "geometry": {
        "type": "Point",
        "coordinates": [
          155.6050374541159,
          58.551999151850076
        ]
      }
    },
    {
      "type": "Feature",
      "properties": {
        "norad_id": 31000,
        "name": "FENGYUN 1C DEB",
        "group": "fengyun-1c-debris",
        "lat": -23.85597245925902,
        "lon": -160.0450180236554,
        "alt_km": 981.4815397386537,
        "timestamp": "2025-12-22T04:03:39.449161+00:00",
        "meta_object_name": "FENGYUN 1C DEB",
        "meta_object_id": "1999-025BCS",
        "meta_epoch": "2025-12-17T13:05:26.702016",
        "meta_mean_motion": 14.09652447,
        "meta_eccentricity": 0.01651917,
        "meta_inclination": 97.566,
        "meta_ra_of_asc_node": 19.4331,
        "meta_arg_of_pericenter": 52.2814,
        "meta_mean_anomaly": 100.2146,
        "meta_ephemeris_type": 0,
        "meta_classification_type": "U",
        "meta_norad_cat_id": 31000,
        "meta_element_set_no": 999,
        "meta_rev_at_epoch": 70024,
        "meta_bstar": 0.00053497673,
        "meta_mean_motion_dot": 1.032e-05,
        "meta_mean_motion_ddot": 0,
        "tle_line1": "1 31000U 99025BCS 25351.54544794  .00001032  00000+0  53498-3 0  9994",
        "tle_line2": "2 31000  97.5660  19.4331 0165191  52.2814 100.2146 14.09652447700244"
      },
      "geometry": {
        "type": "Point",
        "coordinates": [
          -160.0450180236554,
          -23.85597245925902
        ]
      }
    },
    {
      "type": "Feature",
      "properties": {
        "norad_id": 31001,
        "name": "FENGYUN 1C DEB",
        "group": "fengyun-1c-debris",
        "lat": 16.451011110348922,
        "lon": -132.88416489333824,
        "alt_km": 780.724529988458,
        "timestamp": "2025-12-22T04:03:39.449171+00:00",
        "meta_object_name": "FENGYUN 1C DEB",
        "meta_object_id": "1999-025BCT",
        "meta_epoch": "2025-12-21T03:01:06.477888",
        "meta_mean_motion": 14.42880653,
        "meta_eccentricity": 0.01471177,
        "meta_inclination": 99.2718,
        "meta_ra_of_asc_node": 228.7462,
        "meta_arg_of_pericenter": 127.9463,
        "meta_mean_anomaly": 233.5125,
        "meta_ephemeris_type": 0,
        "meta_classification_type": "U",
        "meta_norad_cat_id": 31001,
        "meta_element_set_no": 999,
        "meta_rev_at_epoch": 98327,
        "meta_bstar": 0.00022560539,
        "meta_mean_motion_dot": 8.02e-06,
        "meta_mean_motion_ddot": 0,
        "tle_line1": "1 31001U 99025BCT 25355.12576942  .00000802  00000+0  22561-3 0  9994",
        "tle_line2": "2 31001  99.2718 228.7462 0147117 127.9463 233.5125 14.42880653983278"
      },
      "geometry": {
        "type": "Point",
        "coordinates": [
          -132.88416489333824,
          16.451011110348922
        ]
      }
    },
    {
      "type": "Feature",
      "properties": {
        "norad_id": 31002,
        "name": "FENGYUN 1C DEB",
        "group": "fengyun-1c-debris",
        "lat": 21.692083823882914,
        "lon": 4.278189717780372,
        "alt_km": 860.3637588691818,
        "timestamp": "2025-12-22T04:03:39.449181+00:00",
        "meta_object_name": "FENGYUN 1C DEB",
        "meta_object_id": "1999-025BCU",
        "meta_epoch": "2025-12-20T21:37:46.056000",
        "meta_mean_motion": 13.9920967,
        "meta_eccentricity": 0.0098565,
        "meta_inclination": 98.885,
        "meta_ra_of_asc_node": 6.6158,
        "meta_arg_of_pericenter": 325.1028,
        "meta_mean_anomaly": 152.4938,
        "meta_ephemeris_type": 0,
        "meta_classification_type": "U",
        "meta_norad_cat_id": 31002,
        "meta_element_set_no": 999,
        "meta_rev_at_epoch": 95719,
        "meta_bstar": 0.00023571,
        "meta_mean_motion_dot": 3.13e-06,
        "meta_mean_motion_ddot": 0,
        "tle_line1": "1 31002U 99025BCU 25354.90122750  .00000313  00000+0  23571-3 0  9993",
        "tle_line2": "2 31002  98.8850   6.6158 0098565 325.1028 152.4938 13.99209670957195"
      },
      "geometry": {
        "type": "Point",
        "coordinates": [
          4.278189717780372,
          21.692083823882914
        ]
      }
    },
    {
      "type": "Feature",
      "properties": {
        "norad_id": 31003,
        "name": "FENGYUN 1C DEB",
        "group": "fengyun-1c-debris",
        "lat": 18.576639759451513,
        "lon": -103.97301751752465,
        "alt_km": 782.593722351372,
        "timestamp": "2025-12-22T04:03:39.449191+00:00",
        "meta_object_name": "FENGYUN 1C DEB",
        "meta_object_id": "1999-025BCV",
        "meta_epoch": "2025-12-20T04:06:45.999936",
        "meta_mean_motion": 14.24738155,
        "meta_eccentricity": 0.00419876,
        "meta_inclination": 98.8429,
        "meta_ra_of_asc_node": 71.0165,
        "meta_arg_of_pericenter": 193.6229,
        "meta_mean_anomaly": 166.382,
        "meta_ephemeris_type": 0,
        "meta_classification_type": "U",
        "meta_norad_cat_id": 31003,
        "meta_element_set_no": 999,
        "meta_rev_at_epoch": 96615,
        "meta_bstar": 0.00091425711,
        "meta_mean_motion_dot": 2.104e-05,
        "meta_mean_motion_ddot": 0,
        "tle_line1": "1 31003U 99025BCV 25354.17136574  .00002104  00000+0  91426-3 0  9996",
        "tle_line2": "2 31003  98.8429  71.0165 0041987 193.6229 166.3820 14.24738155966153"
      },
      "geometry": {
        "type": "Point",
        "coordinates": [
          -103.97301751752465,
          18.576639759451513
        ]
      }
    }
  ]
}